QIANFAN-236             
1 69865U 26155T   26195.87203993  .00000242  00000+0  93737-4 0  9997
2 69865  89.0067  60.9832 0030120 224.9966 134.8787 14.26768808  1333
QIANFAN-237             
1 69866U 26155U   26195.80185172  .00000201  00000+0  76604-4 0  9998
2 69866  89.0067  60.9911 0030105 225.2258 134.6486 14.26777010  1310
QIANFAN-238             
1 69867U 26155V   26195.80180447  .00000245  00000+0  94803-4 0  9998
2 69867  89.0067  60.9912 0030075 225.2613 134.6133 14.26784507  1322
CZ-8A R/B               
1 69868U 26155W   26195.73474522  .00000060  00000+0  10228-4 0  9995
2 69868  88.9660  60.9561 0105414 104.1386 257.1561 14.48268905  1321
STARLINK-37886          
1 69943U 26157A   26195.83335647 -.02134855  12567-2 -56735-2 0  9995
2 69943  53.1606 297.7951 0001159  49.5821  75.0009 15.94100754  2097
STARLINK-37937          
1 69944U 26157B   26195.83335647 -.02130851  12529-2 -56479-2 0  9991
2 69944  53.1607 297.7928 0001104  52.1856  73.4769 15.94150249  2090
STARLINK-37903          
1 69945U 26157C   26195.83335647 -.02124671  12522-2 -54946-2 0  9995
2 69945  53.1606 297.7795 0001159  51.5202  80.5588 15.94610830  2095
STARLINK-37905          
1 69946U 26157D   26195.83335647 -.02103511  12392-2 -52131-2 0  9995
2 69946  53.1605 297.7587 0001193  59.3135  82.7251 15.95400958  2093
STARLINK-37904          
1 69947U 26157E   26195.83335647 -.02101755  12389-2 -51726-2 0  9999
2 69947  53.1604 297.7552 0001187  54.1804  89.6041 15.95529672  2092
STARLINK-37891          
1 69948U 26157F   26195.83335647 -.02109121  12491-2 -51504-2 0  9993
2 69948  53.1604 297.7486 0001154  56.0552  90.8698 15.95674377  2099
STARLINK-37923          
1 69949U 26157G   26195.83335647 -.02114732  12651-2 -49713-2 0  9995
2 69949  53.1604 297.7302 0001312  55.7415 100.0227 15.96373877  2091
STARLINK-37895          
1 69950U 26157H   26195.83335647 -.02120866  12760-2 -49093-2 0  9994
2 69950  53.1604 297.7218 0001109  57.6486 102.0933 15.96657026  2099
STARLINK-37841          
1 69951U 26157J   26195.83335647 -.02112792  12726-2 -47813-2 0  9994
2 69951  53.1602 297.7109 0001113  57.0206 107.9690 15.97067605  2099
STARLINK-37899          
1 69952U 26157K   26195.83335647 -.02112280  12781-2 -46684-2 0  9993
2 69952  53.1602 297.6983 0001095  59.5733 111.4370 15.97495568  2098
STARLINK-37900          
1 69953U 26157L   26195.83335647 -.02096426  12613-2 -46082-2 0  9993
2 69953  53.1602 297.6945 0001086  57.2342 115.6004 15.97592217  2097
STARLINK-37882          
1 69954U 26157M   26195.83335647 -.02083201  12518-2 -44802-2 0  9993
2 69954  53.1601 297.6842 0001111  58.0254 119.7027 15.97983660  2099
STARLINK-37928          
1 69955U 26157N   26195.83335647 -.02090418  12600-2 -44962-2 0  9991
2 69955  53.1601 297.6806 0001109  62.7037 116.8517 15.97982329  2091
STARLINK-37824          
1 69956U 26157P   26195.83335647 -.02079659  12477-2 -44733-2 0  9994
2 69956  53.1601 297.6791 0001140  60.3008 119.9640 15.97980252  2096
STARLINK-37919          
1 69957U 26157Q   26195.83335647 -.02110455  12832-2 -45368-2 0  9995
2 69957  53.1601 297.6761 0001122  63.1418 118.5458 15.97994273  2090
STARLINK-37964          
1 69958U 26157R   26195.83335647 -.02075491  12462-2 -44066-2 0  9999
2 69958  53.1601 297.6704 0001099  59.7887 124.5800 15.98213127  2093
STARLINK-37907          
1 69959U 26157S   26195.83335647 -.02049999  12219-2 -42731-2 0  9991
2 69959  53.1600 297.6619 0001097  63.4331 125.0403 15.98538784  2096
STARLINK-37901          
1 69960U 26157T   26195.83335647 -.02108329  12918-2 -43449-2 0  9999
2 69960  53.1598 297.6550 0001334  69.3543 122.4771 15.98746739  2092
STARLINK-37910          
1 69961U 26157U   26195.83335647 -.02076798  12602-2 -41987-2 0  9999
2 69961  53.1598 297.6453 0001093  63.6822 132.8326 15.99083982  2090
STARLINK-37925          
1 69962U 26157V   26195.83335647 -.02058758  12399-2 -41551-2 0  9996
2 69962  53.1597 297.6421 0001083  59.9220 138.1127 15.99112745  2092
STARLINK-37931          
1 69963U 26157W   26195.83335647 -.02077392  12629-2 -41674-2 0  9994
2 69963  53.1597 297.6360 0001051  65.6154 135.3828 15.99221664  2098
STARLINK-37914          
1 69964U 26157X   26195.83335647 -.02072613  12667-2 -40095-2 0  9994
2 69964  53.1597 297.6201 0001056  65.0917 143.4440 15.99859788  2093
STARLINK-37840          
1 69965U 26157Y   26195.83335647 -.02073416  12711-2 -39567-2 0  9999
2 69965  53.1596 297.6125 0001005  62.3691 149.8226 16.00098632  2099
STARLINK-37894          
1 69966U 26157Z   26195.83335647 -.02093621  12957-2 -39832-2 0  9997
2 69966  53.1596 297.6080 0001009  57.8174 156.4844 16.00153089  2097
STARLINK-37875          
1 69967U 26157AA  26195.83335647 -.02078879  12833-2 -38802-2 0  9995
2 69967  53.1594 297.5991 0001024  62.4587 156.1011 16.00484664  2092
