OBJECT_NAME,OBJECT_ID,EPOCH,MEAN_MOTION,ECCENTRICITY,INCLINATION,RA_OF_ASC_NODE,ARG_OF_PERICENTER,MEAN_ANOMALY,EPHEMERIS_TYPE,CLASSIFICATION_TYPE,NORAD_CAT_ID,ELEMENT_SET_NO,REV_AT_EPOCH,BSTAR,MEAN_MOTION_DOT,MEAN_MOTION_DDOT
QIANFAN-236,2026-155T,2026-07-14T20:55:44.249952,14.26768808,.003012,89.0067,60.9832,224.9966,134.8787,0,U,69865,999,133,.93737E-4,.242E-5,0
QIANFAN-237,2026-155U,2026-07-14T19:14:39.988608,14.26777010,.0030105,89.0067,60.9911,225.2258,134.6486,0,U,69866,999,131,.76604E-4,.201E-5,0
QIANFAN-238,2026-155V,2026-07-14T19:14:35.906208,14.26784507,.0030075,89.0067,60.9912,225.2613,134.6133,0,U,69867,999,132,.94803E-4,.245E-5,0
CZ-8A R/B,2026-155W,2026-07-14T17:38:01.987008,14.48268905,.0105414,88.9660,60.9561,104.1386,257.1561,0,U,69868,999,132,.10228E-4,.6E-6,0
STARLINK-37886,2026-157A,2026-07-14T20:00:01.999008,15.94100754,.0001159,53.1606,297.7951,49.5821,75.0009,0,U,69943,999,209,-.56735E-2,-.2134855E-1,.12567E-2
STARLINK-37937,2026-157B,2026-07-14T20:00:01.999008,15.94150249,.0001104,53.1607,297.7928,52.1856,73.4769,0,U,69944,999,209,-.56479E-2,-.2130851E-1,.12529E-2
STARLINK-37903,2026-157C,2026-07-14T20:00:01.999008,15.94610830,.0001159,53.1606,297.7795,51.5202,80.5588,0,U,69945,999,209,-.54946E-2,-.2124671E-1,.12522E-2
STARLINK-37905,2026-157D,2026-07-14T20:00:01.999008,15.95400958,.0001193,53.1605,297.7587,59.3135,82.7251,0,U,69946,999,209,-.52131E-2,-.2103511E-1,.12392E-2
STARLINK-37904,2026-157E,2026-07-14T20:00:01.999008,15.95529672,.0001187,53.1604,297.7552,54.1804,89.6041,0,U,69947,999,209,-.51726E-2,-.2101755E-1,.12389E-2
STARLINK-37891,2026-157F,2026-07-14T20:00:01.999008,15.95674377,.0001154,53.1604,297.7486,56.0552,90.8698,0,U,69948,999,209,-.51504E-2,-.2109121E-1,.12491E-2
STARLINK-37923,2026-157G,2026-07-14T20:00:01.999008,15.96373877,.0001312,53.1604,297.7302,55.7415,100.0227,0,U,69949,999,209,-.49713E-2,-.2114732E-1,.12651E-2
STARLINK-37895,2026-157H,2026-07-14T20:00:01.999008,15.96657026,.0001109,53.1604,297.7218,57.6486,102.0933,0,U,69950,999,209,-.49093E-2,-.2120866E-1,.1276E-2
STARLINK-37841,2026-157J,2026-07-14T20:00:01.999008,15.97067605,.0001113,53.1602,297.7109,57.0206,107.9690,0,U,69951,999,209,-.47813E-2,-.2112792E-1,.12726E-2
STARLINK-37899,2026-157K,2026-07-14T20:00:01.999008,15.97495568,.0001095,53.1602,297.6983,59.5733,111.4370,0,U,69952,999,209,-.46684E-2,-.211228E-1,.12781E-2
STARLINK-37900,2026-157L,2026-07-14T20:00:01.999008,15.97592217,.0001086,53.1602,297.6945,57.2342,115.6004,0,U,69953,999,209,-.46082E-2,-.2096426E-1,.12613E-2
STARLINK-37882,2026-157M,2026-07-14T20:00:01.999008,15.97983660,.0001111,53.1601,297.6842,58.0254,119.7027,0,U,69954,999,209,-.44802E-2,-.2083201E-1,.12518E-2
STARLINK-37928,2026-157N,2026-07-14T20:00:01.999008,15.97982329,.0001109,53.1601,297.6806,62.7037,116.8517,0,U,69955,999,209,-.44962E-2,-.2090418E-1,.126E-2
STARLINK-37824,2026-157P,2026-07-14T20:00:01.999008,15.97980252,.000114,53.1601,297.6791,60.3008,119.9640,0,U,69956,999,209,-.44733E-2,-.2079659E-1,.12477E-2
STARLINK-37919,2026-157Q,2026-07-14T20:00:01.999008,15.97994273,.0001122,53.1601,297.6761,63.1418,118.5458,0,U,69957,999,209,-.45368E-2,-.2110455E-1,.12832E-2
STARLINK-37964,2026-157R,2026-07-14T20:00:01.999008,15.98213127,.0001099,53.1601,297.6704,59.7887,124.5800,0,U,69958,999,209,-.44066E-2,-.2075491E-1,.12462E-2
STARLINK-37907,2026-157S,2026-07-14T20:00:01.999008,15.98538784,.0001097,53.1600,297.6619,63.4331,125.0403,0,U,69959,999,209,-.42731E-2,-.2049999E-1,.12219E-2
STARLINK-37901,2026-157T,2026-07-14T20:00:01.999008,15.98746739,.0001334,53.1598,297.6550,69.3543,122.4771,0,U,69960,999,209,-.43449E-2,-.2108329E-1,.12918E-2
STARLINK-37910,2026-157U,2026-07-14T20:00:01.999008,15.99083982,.0001093,53.1598,297.6453,63.6822,132.8326,0,U,69961,999,209,-.41987E-2,-.2076798E-1,.12602E-2
STARLINK-37925,2026-157V,2026-07-14T20:00:01.999008,15.99112745,.0001083,53.1597,297.6421,59.9220,138.1127,0,U,69962,999,209,-.41551E-2,-.2058758E-1,.12399E-2
STARLINK-37931,2026-157W,2026-07-14T20:00:01.999008,15.99221664,.0001051,53.1597,297.6360,65.6154,135.3828,0,U,69963,999,209,-.41674E-2,-.2077392E-1,.12629E-2
STARLINK-37914,2026-157X,2026-07-14T20:00:01.999008,15.99859788,.0001056,53.1597,297.6201,65.0917,143.4440,0,U,69964,999,209,-.40095E-2,-.2072613E-1,.12667E-2
STARLINK-37840,2026-157Y,2026-07-14T20:00:01.999008,16.00098632,.0001005,53.1596,297.6125,62.3691,149.8226,0,U,69965,999,209,-.39567E-2,-.2073416E-1,.12711E-2
STARLINK-37894,2026-157Z,2026-07-14T20:00:01.999008,16.00153089,.0001009,53.1596,297.6080,57.8174,156.4844,0,U,69966,999,209,-.39832E-2,-.2093621E-1,.12957E-2
STARLINK-37875,2026-157AA,2026-07-14T20:00:01.999008,16.00484664,.0001024,53.1594,297.5991,62.4587,156.1011,0,U,69967,999,209,-.38802E-2,-.2078879E-1,.12833E-2
